[{
    "OBJECT_NAME": "STARLINK-3195",
    "OBJECT_ID": "2021-115AQ",
    "EPOCH": "2022-07-20T17:28:35.722272",
    "MEAN_MOTION": 15.08844419,
    "ECCENTRICITY": 0.0001541,
    "INCLINATION": 53.217,
    "RA_OF_ASC_NODE": 340.5845,
    "ARG_OF_PERICENTER": 52.8385,
    "MEAN_ANOMALY": 307.2748,
    "EPHEMERIS_TYPE": 0,
    "CLASSIFICATION_TYPE": "U",
    "NORAD_CAT_ID": 49762,
    "ELEMENT_SET_NO": 999,
    "REV_AT_EPOCH": 3520,
    "BSTAR": 6.4242e-5,
    "MEAN_MOTION_DOT": 7.35e-6,
    "MEAN_MOTION_DDOT": 0
},{
    "OBJECT_NAME": "STARLINK-3198",
    "OBJECT_ID": "2021-115AR",
    "EPOCH": "2022-07-20T18:48:05.745312",
    "MEAN_MOTION": 15.08848552,
    "ECCENTRICITY": 0.000201,
    "INCLINATION": 53.2203,
    "RA_OF_ASC_NODE": 340.3245,
    "ARG_OF_PERICENTER": 57.8813,
    "MEAN_ANOMALY": 302.2374,
    "EPHEMERIS_TYPE": 0,
    "CLASSIFICATION_TYPE": "U",
    "NORAD_CAT_ID": 49763,
    "ELEMENT_SET_NO": 999,
    "REV_AT_EPOCH": 3521,
    "BSTAR": 0.00018185,
    "MEAN_MOTION_DOT": 2.608e-5,
    "MEAN_MOTION_DDOT": 0
},{
    "OBJECT_NAME": "STARLINK-3206",
    "OBJECT_ID": "2021-115AS",
    "EPOCH": "2022-07-20T17:39:12.313152",
    "MEAN_MOTION": 15.08840085,
    "ECCENTRICITY": 0.0001842,
    "INCLINATION": 53.2171,
    "RA_OF_ASC_NODE": 340.5493,
    "ARG_OF_PERICENTER": 46.9044,
    "MEAN_ANOMALY": 313.2102,
    "EPHEMERIS_TYPE": 0,
    "CLASSIFICATION_TYPE": "U",
    "NORAD_CAT_ID": 49764,
    "ELEMENT_SET_NO": 999,
    "REV_AT_EPOCH": 3631,
    "BSTAR": 8.1592e-5,
    "MEAN_MOTION_DOT": 1.011e-5,
    "MEAN_MOTION_DDOT": 0
},{
    "OBJECT_NAME": "STARLINK-3227",
    "OBJECT_ID": "2021-115AT",
    "EPOCH": "2022-07-21T02:55:37.741440",
    "MEAN_MOTION": 15.08835663,
    "ECCENTRICITY": 0.0001679,
    "INCLINATION": 53.2186,
    "RA_OF_ASC_NODE": 338.8088,
    "ARG_OF_PERICENTER": 57.9733,
    "MEAN_ANOMALY": 302.1422,
    "EPHEMERIS_TYPE": 0,
    "CLASSIFICATION_TYPE": "U",
    "NORAD_CAT_ID": 49765,
    "ELEMENT_SET_NO": 999,
    "REV_AT_EPOCH": 3637,
    "BSTAR": 0.00026776,
    "MEAN_MOTION_DOT": 3.975e-5,
    "MEAN_MOTION_DDOT": 0
},{
    "OBJECT_NAME": "STARLINK-3190",
    "OBJECT_ID": "2021-115AU",
    "EPOCH": "2022-07-21T01:41:25.637568",
    "MEAN_MOTION": 15.08840582,
    "ECCENTRICITY": 0.0002419,
    "INCLINATION": 53.2184,
    "RA_OF_ASC_NODE": 339.0476,
    "ARG_OF_PERICENTER": 44.944,
    "MEAN_ANOMALY": 315.1748,
    "EPHEMERIS_TYPE": 0,
    "CLASSIFICATION_TYPE": "U",
    "NORAD_CAT_ID": 49766,
    "ELEMENT_SET_NO": 999,
    "REV_AT_EPOCH": 3636,
    "BSTAR": -2.1667e-5,
    "MEAN_MOTION_DOT": -6.33e-6,
    "MEAN_MOTION_DDOT": 0
},{
    "OBJECT_NAME": "STARLINK-3192",
    "OBJECT_ID": "2021-115AV",
    "EPOCH": "2022-07-20T15:58:30.845856",
    "MEAN_MOTION": 15.08853166,
    "ECCENTRICITY": 0.0001821,
    "INCLINATION": 53.2178,
    "RA_OF_ASC_NODE": 340.8653,
    "ARG_OF_PERICENTER": 61.0987,
    "MEAN_ANOMALY": 299.0188,
    "EPHEMERIS_TYPE": 0,
    "CLASSIFICATION_TYPE": "U",
    "NORAD_CAT_ID": 49767,
    "ELEMENT_SET_NO": 999,
    "REV_AT_EPOCH": 3630,
    "BSTAR": 0.00026694,
    "MEAN_MOTION_DOT": 3.964e-5,
    "MEAN_MOTION_DDOT": 0
},{
    "OBJECT_NAME": "STARLINK-3196",
    "OBJECT_ID": "2021-115AW",
    "EPOCH": "2022-07-20T19:30:28.341792",
    "MEAN_MOTION": 15.08852634,
    "ECCENTRICITY": 0.0001628,
    "INCLINATION": 53.2189,
    "RA_OF_ASC_NODE": 340.2009,
    "ARG_OF_PERICENTER": 51.7961,
    "MEAN_ANOMALY": 308.3178,
    "EPHEMERIS_TYPE": 0,
    "CLASSIFICATION_TYPE": "U",
    "NORAD_CAT_ID": 49768,
    "ELEMENT_SET_NO": 999,
    "REV_AT_EPOCH": 3521,
    "BSTAR": 0.00020495,
    "MEAN_MOTION_DOT": 2.976e-5,
    "MEAN_MOTION_DDOT": 0
},{
    "OBJECT_NAME": "STARLINK-3208",
    "OBJECT_ID": "2021-115AX",
    "EPOCH": "2022-07-20T19:25:10.998048",
    "MEAN_MOTION": 15.08838641,
    "ECCENTRICITY": 0.0001521,
    "INCLINATION": 53.2172,
    "RA_OF_ASC_NODE": 340.2193,
    "ARG_OF_PERICENTER": 72.9724,
    "MEAN_ANOMALY": 287.1435,
    "EPHEMERIS_TYPE": 0,
    "CLASSIFICATION_TYPE": "U",
    "NORAD_CAT_ID": 49769,
    "ELEMENT_SET_NO": 999,
    "REV_AT_EPOCH": 3521,
    "BSTAR": 2.9183e-5,
    "MEAN_MOTION_DOT": 1.76e-6,
    "MEAN_MOTION_DDOT": 0
},{
    "OBJECT_NAME": "STARLINK-3191",
    "OBJECT_ID": "2021-115AY",
    "EPOCH": "2022-07-20T19:35:47.293440",
    "MEAN_MOTION": 15.0883054,
    "ECCENTRICITY": 0.0001734,
    "INCLINATION": 53.2169,
    "RA_OF_ASC_NODE": 340.1888,
    "ARG_OF_PERICENTER": 54.286,
    "MEAN_ANOMALY": 305.8293,
    "EPHEMERIS_TYPE": 0,
    "CLASSIFICATION_TYPE": "U",
    "NORAD_CAT_ID": 49770,
    "ELEMENT_SET_NO": 999,
    "REV_AT_EPOCH": 3632,
    "BSTAR": -0.00011592,
    "MEAN_MOTION_DOT": -2.132e-5,
    "MEAN_MOTION_DDOT": 0
},{
    "OBJECT_NAME": "STARLINK-3201",
    "OBJECT_ID": "2021-115AZ",
    "EPOCH": "2022-07-20T19:41:05.127936",
    "MEAN_MOTION": 15.08838268,
    "ECCENTRICITY": 0.0001472,
    "INCLINATION": 53.218,
    "RA_OF_ASC_NODE": 340.1613,
    "ARG_OF_PERICENTER": 64.5157,
    "MEAN_ANOMALY": 295.5988,
    "EPHEMERIS_TYPE": 0,
    "CLASSIFICATION_TYPE": "U",
    "NORAD_CAT_ID": 49771,
    "ELEMENT_SET_NO": 999,
    "REV_AT_EPOCH": 3632,
    "BSTAR": -1.3823e-5,
    "MEAN_MOTION_DOT": -5.08e-6,
    "MEAN_MOTION_DDOT": 0
},{
    "OBJECT_NAME": "GLOBAL-12",
    "OBJECT_ID": "2021-115BA",
    "EPOCH": "2022-07-20T21:05:01.281120",
    "MEAN_MOTION": 15.44963015,
    "ECCENTRICITY": 0.0001783,
    "INCLINATION": 53.2136,
    "RA_OF_ASC_NODE": 305.2264,
    "ARG_OF_PERICENTER": 7.7486,
    "MEAN_ANOMALY": 352.3549,
    "EPHEMERIS_TYPE": 0,
    "CLASSIFICATION_TYPE": "U",
    "NORAD_CAT_ID": 49772,
    "ELEMENT_SET_NO": 999,
    "REV_AT_EPOCH": 3571,
    "BSTAR": 0.00035367,
    "MEAN_MOTION_DOT": 0.0001653,
    "MEAN_MOTION_DDOT": 0
},{
    "OBJECT_NAME": "GLOBAL-13",
    "OBJECT_ID": "2021-115BB",
    "EPOCH": "2022-07-21T00:22:51.771072",
    "MEAN_MOTION": 15.44927102,
    "ECCENTRICITY": 0.0003611,
    "INCLINATION": 53.2146,
    "RA_OF_ASC_NODE": 305.3966,
    "ARG_OF_PERICENTER": 238.6666,
    "MEAN_ANOMALY": 121.3989,
    "EPHEMERIS_TYPE": 0,
    "CLASSIFICATION_TYPE": "U",
    "NORAD_CAT_ID": 49773,
    "ELEMENT_SET_NO": 999,
    "REV_AT_EPOCH": 3572,
    "BSTAR": 0.00036182,
    "MEAN_MOTION_DOT": 0.00016902,
    "MEAN_MOTION_DDOT": 0
},{
    "OBJECT_NAME": "GSAT0223 (GALILEO 27)",
    "OBJECT_ID": "2021-116A",
    "EPOCH": "2022-07-18T11:38:04.691328",
    "MEAN_MOTION": 1.70475736,
    "ECCENTRICITY": 0.0002781,
    "INCLINATION": 57.1813,
    "RA_OF_ASC_NODE": 20.2448,
    "ARG_OF_PERICENTER": 138.5064,
    "MEAN_ANOMALY": 221.6511,
    "EPHEMERIS_TYPE": 0,
    "CLASSIFICATION_TYPE": "U",
    "NORAD_CAT_ID": 49809,
    "ELEMENT_SET_NO": 999,
    "REV_AT_EPOCH": 380,
    "BSTAR": 0,
    "MEAN_MOTION_DOT": -9.0e-7,
    "MEAN_MOTION_DDOT": 0
},{
    "OBJECT_NAME": "GSAT0224 (GALILEO 28)",
    "OBJECT_ID": "2021-116B",
    "EPOCH": "2022-07-20T08:41:42.651744",
    "MEAN_MOTION": 1.70475921,
    "ECCENTRICITY": 0.0002577,
    "INCLINATION": 57.1828,
    "RA_OF_ASC_NODE": 20.1921,
    "ARG_OF_PERICENTER": 122.1309,
    "MEAN_ANOMALY": 62.7844,
    "EPHEMERIS_TYPE": 0,
    "CLASSIFICATION_TYPE": "U",
    "NORAD_CAT_ID": 49810,
    "ELEMENT_SET_NO": 999,
    "REV_AT_EPOCH": 385,
    "BSTAR": 0,
    "MEAN_MOTION_DOT": -9.0e-7,
    "MEAN_MOTION_DDOT": 0
},{
    "OBJECT_NAME": "2021-117A",
    "OBJECT_ID": "2021-117A",
    "EPOCH": "2022-07-21T04:28:52.183776",
    "MEAN_MOTION": 15.32019215,
    "ECCENTRICITY": 0.0010645,
    "INCLINATION": 97.3823,
    "RA_OF_ASC_NODE": 277.8513,
    "ARG_OF_PERICENTER": 211.99,
    "MEAN_ANOMALY": 232.1911,
    "EPHEMERIS_TYPE": 0,
    "CLASSIFICATION_TYPE": "U",
    "NORAD_CAT_ID": 49812,
    "ELEMENT_SET_NO": 999,
    "REV_AT_EPOCH": 3448,
    "BSTAR": 0.00042151,
    "MEAN_MOTION_DOT": 0.00012983,
    "MEAN_MOTION_DDOT": 0
},{
    "OBJECT_NAME": "JINZIJING 1 03",
    "OBJECT_ID": "2021-117B",
    "EPOCH": "2022-07-21T05:14:18.205728",
    "MEAN_MOTION": 15.2749706,
    "ECCENTRICITY": 0.0010777,
    "INCLINATION": 97.3819,
    "RA_OF_ASC_NODE": 277.4989,
    "ARG_OF_PERICENTER": 202.3553,
    "MEAN_ANOMALY": 242.5416,
    "EPHEMERIS_TYPE": 0,
    "CLASSIFICATION_TYPE": "U",
    "NORAD_CAT_ID": 49813,
    "ELEMENT_SET_NO": 999,
    "REV_AT_EPOCH": 3446,
    "BSTAR": 0.00040347,
    "MEAN_MOTION_DOT": 0.00010803,
    "MEAN_MOTION_DDOT": 0
},{
    "OBJECT_NAME": "2021-117C",
    "OBJECT_ID": "2021-117C",
    "EPOCH": "2022-07-21T03:15:39.858336",
    "MEAN_MOTION": 15.29731061,
    "ECCENTRICITY": 0.0011358,
    "INCLINATION": 97.3818,
    "RA_OF_ASC_NODE": 277.7689,
    "ARG_OF_PERICENTER": 201.1968,
    "MEAN_ANOMALY": 246.3178,
    "EPHEMERIS_TYPE": 0,
    "CLASSIFICATION_TYPE": "U",
    "NORAD_CAT_ID": 49814,
    "ELEMENT_SET_NO": 999,
    "REV_AT_EPOCH": 3447,
    "BSTAR": 0.0006154,
    "MEAN_MOTION_DOT": 0.00017704,
    "MEAN_MOTION_DDOT": 0
},{
    "OBJECT_NAME": "LIZE 1",
    "OBJECT_ID": "2021-117D",
    "EPOCH": "2022-07-21T04:20:04.638336",
    "MEAN_MOTION": 15.31956767,
    "ECCENTRICITY": 0.0010623,
    "INCLINATION": 97.3827,
    "RA_OF_ASC_NODE": 277.8587,
    "ARG_OF_PERICENTER": 211.7789,
    "MEAN_ANOMALY": 200.3651,
    "EPHEMERIS_TYPE": 0,
    "CLASSIFICATION_TYPE": "U",
    "NORAD_CAT_ID": 49815,
    "ELEMENT_SET_NO": 999,
    "REV_AT_EPOCH": 3448,
    "BSTAR": 0.00030686,
    "MEAN_MOTION_DOT": 9.408e-5,
    "MEAN_MOTION_DDOT": 0
},{
    "OBJECT_NAME": "JINZIJING 5 (GB 5)",
    "OBJECT_ID": "2021-117E",
    "EPOCH": "2022-07-21T04:23:58.256160",
    "MEAN_MOTION": 15.31784387,
    "ECCENTRICITY": 0.0014044,
    "INCLINATION": 97.3827,
    "RA_OF_ASC_NODE": 278.3194,
    "ARG_OF_PERICENTER": 217.0555,
    "MEAN_ANOMALY": 227.6285,
    "EPHEMERIS_TYPE": 0,
    "CLASSIFICATION_TYPE": "U",
    "NORAD_CAT_ID": 49816,
    "ELEMENT_SET_NO": 999,
    "REV_AT_EPOCH": 3451,
    "BSTAR": 0.00077926,
    "MEAN_MOTION_DOT": 0.00023956,
    "MEAN_MOTION_DDOT": 0
}]
